OBJECT_NAME,OBJECT_ID,EPOCH,MEAN_MOTION,ECCENTRICITY,INCLINATION,RA_OF_ASC_NODE,ARG_OF_PERICENTER,MEAN_ANOMALY,EPHEMERIS_TYPE,CLASSIFICATION_TYPE,NORAD_CAT_ID,ELEMENT_SET_NO,REV_AT_EPOCH,BSTAR,MEAN_MOTION_DOT,MEAN_MOTION_DDOT
TIANMU-1 20,2023-208B,2026-06-18T07:17:40.089408,15.32778201,.00059354,97.4452,286.2456,329.3230,30.7664,0,U,58661,999,13759,.1999376E-3,.6252E-4,0
TIANMU-1 21,2023-208C,2026-06-18T06:58:27.688800,15.35092587,.0005893,97.4512,288.9175,319.1928,40.8873,0,U,58662,999,13773,.21901227E-3,.7379E-4,0
TIANMU-1 22,2023-208D,2026-06-18T07:32:52.706688,15.31070682,.00030753,97.4506,285.5549,359.8146,0.3094,0,U,58663,999,13750,.19358911E-3,.5733E-4,0
TIANMU-1 15,2024-004A,2026-06-18T06:40:32.033856,15.27032290,.00065886,97.4668,355.4683,358.6345,1.4875,0,U,58700,999,13594,.16621861E-3,.4336E-4,0
TIANMU-1 16,2024-004B,2026-06-18T06:25:19.077024,15.26757270,.00057178,97.4614,354.6934,4.3115,355.8172,0,U,58701,999,13594,.17026872E-3,.4406E-4,0
TIANMU-1 17,2024-004C,2026-06-18T07:38:44.996640,15.26756862,.00054032,97.4642,355.2296,10.6425,349.4927,0,U,58702,999,13594,.16917507E-3,.4377E-4,0
TIANMU-1 18,2024-004D,2026-06-18T07:04:28.655040,15.27014123,.00039503,97.4660,355.4620,11.7087,348.4243,0,U,58703,999,13594,.16237881E-3,.423E-4,0
INSAT-3DS,2024-033A,2026-06-18T01:20:09.488832,1.00271270,.00010463,0.0447,109.1675,326.3150,292.9569,0,U,58990,999,4707,0,-.162E-5,0
METEOR-M2 4,2024-039A,2026-06-18T07:24:49.480992,14.22429678,.00073583,98.7011,128.5928,157.8364,202.3133,0,U,59051,999,11942,.26815349E-4,.16E-6,0
GOES 19,2024-119A,2026-06-18T04:00:32.696640,1.00270931,.00003647,0.0352,155.0774,21.7701,74.5084,0,U,60133,999,697,0,-.254E-5,0
MTG-S1,2025-143A,2026-06-17T23:13:03.747936,1.00270537,.00007875,0.6022,339.1600,17.8158,254.0253,0,U,64723,999,342,0,-.37E-6,0
METOP-SGA1,2025-172A,2026-06-16T03:40:47.624736,14.21509720,.0000902,98.6644,226.8998,93.8213,266.3067,0,U,65159,999,4364,.41999845E-4,.49E-6,0
FENGYUN 3H,2025-219A,2026-06-18T05:44:08.090592,14.19920624,.00015985,98.6768,109.9876,76.2621,283.8733,0,U,65815,999,3753,.4009418E-4,.42E-6,0
