TIANMU-1 20             
1 58661U 23208B   26169.30393622  .00006252  00000+0  19994-3 0  9992
2 58661  97.4452 286.2456 0005935 329.3230  30.7664 15.32778201137593
TIANMU-1 21             
1 58662U 23208C   26169.29059825  .00007379  00000+0  21901-3 0  9997
2 58662  97.4512 288.9175 0005893 319.1928  40.8873 15.35092587137731
TIANMU-1 22             
1 58663U 23208D   26169.31449892  .00005733  00000+0  19359-3 0  9994
2 58663  97.4506 285.5549 0003075 359.8146   0.3094 15.31070682137505
TIANMU-1 15             
1 58700U 24004A   26169.27814854  .00004336  00000+0  16622-3 0  9998
2 58700  97.4668 355.4683 0006588 358.6345   1.4875 15.27032290135945
TIANMU-1 16             
1 58701U 24004B   26169.26758191  .00004406  00000+0  17027-3 0  9997
2 58701  97.4614 354.6934 0005717   4.3115 355.8172 15.26757270135947
TIANMU-1 17             
1 58702U 24004C   26169.31857635  .00004377  00000+0  16918-3 0  9992
2 58702  97.4642 355.2296 0005403  10.6425 349.4927 15.26756862135946
TIANMU-1 18             
1 58703U 24004D   26169.29477610  .00004230  00000+0  16238-3 0  9994
2 58703  97.4660 355.4620 0003950  11.7087 348.4243 15.27014123135949
INSAT-3DS               
1 58990U 24033A   26169.05566538 -.00000162  00000+0  00000+0 0  9993
2 58990   0.0447 109.1675 0001046 326.3150 292.9569  1.00271270 47078
METEOR-M2 4             
1 59051U 24039A   26169.30890603  .00000016  00000+0  26815-4 0  9993
2 59051  98.7011 128.5928 0007358 157.8364 202.3133 14.22429678119426
GOES 19                 
1 60133U 24119A   26169.16704510 -.00000254  00000+0  00000+0 0  9998
2 60133   0.0352 155.0774 0000364  21.7701  74.5084  1.00270931  6978
MTG-S1                  
1 64723U 25143A   26168.96740449 -.00000037  00000+0  00000+0 0  9992
2 64723   0.6022 339.1600 0000787  17.8158 254.0253  1.00270537  3423
METOP-SGA1              
1 65159U 25172A   26167.15332899  .00000049  00000+0  42000-4 0  9997
2 65159  98.6644 226.8998 0000902  93.8213 266.3067 14.21509720 43644
FENGYUN 3H              
1 65815U 25219A   26169.23898253  .00000042  00000+0  40094-4 0  9994
2 65815  98.6768 109.9876 0001598  76.2621 283.8733 14.19920624 37538
